[
  {
    "name": "ONEWEB-0644",
    "noradId": "55808",
    "line1": "1 55808U 23029N   26197.81370374 -.00000010  00000+0 -58234-4 0  9998",
    "line2": "2 55808  87.9183 299.0786 0002308 105.5106 254.6282 13.19726137162813"
  },
  {
    "name": "ONEWEB-0645",
    "noradId": "55809",
    "line1": "1 55809U 23029P   26198.21489881  .00000083  00000+0  17451-3 0  9991",
    "line2": "2 55809  87.9186 298.9951 0002090 114.6993 245.4357 13.19726567162865"
  },
  {
    "name": "ONEWEB-0646",
    "noradId": "55810",
    "line1": "1 55810U 23029Q   26197.77736318  .00000049  00000+0  89642-4 0  9997",
    "line2": "2 55810  87.9186 299.0831 0002297 104.7380 255.4007 13.19726645162797"
  },
  {
    "name": "ONEWEB-0648",
    "noradId": "55811",
    "line1": "1 55811U 23029R   26197.79832110 -.00000150  00000+0 -43986-3 0  9992",
    "line2": "2 55811  87.8969 283.8041 0002424 121.1282 239.0086 13.14503273163281"
  },
  {
    "name": "ONEWEB-0649",
    "noradId": "55812",
    "line1": "1 55812U 23029S   26197.80262891  .00000039  00000+0  65951-4 0  9999",
    "line2": "2 55812  87.9187 299.0759 0002070 108.3698 251.7660 13.19726825162839"
  },
  {
    "name": "ONEWEB-0650",
    "noradId": "55813",
    "line1": "1 55813U 23029T   26197.79789612  .00000029  00000+0  39542-4 0  9999",
    "line2": "2 55813  87.9184 299.0792 0002522 110.8900 249.2503 13.19726091162800"
  },
  {
    "name": "ONEWEB-0652",
    "noradId": "55814",
    "line1": "1 55814U 23029U   26198.15988522  .00000227  00000+0  57887-3 0  9993",
    "line2": "2 55814  87.8968 283.7387 0001992  94.9032 265.2325 13.14502774163309"
  },
  {
    "name": "ONEWEB-0653",
    "noradId": "55815",
    "line1": "1 55815U 23029V   26198.22014257  .00000246  00000+0  62936-3 0  9999",
    "line2": "2 55815  87.8968 283.7251 0001945  99.6578 260.4771 13.14502346163346"
  },
  {
    "name": "ONEWEB-0654",
    "noradId": "55816",
    "line1": "1 55816U 23029W   26198.21538385  .00000144  00000+0  35524-3 0  9992",
    "line2": "2 55816  87.8967 283.7221 0001791  90.8630 269.2705 13.14502059163361"
  },
  {
    "name": "ONEWEB-0656",
    "noradId": "55817",
    "line1": "1 55817U 23029X   26198.12833346  .00000066  00000+0  13115-3 0  9993",
    "line2": "2 55817  87.9187 268.4643 0001839  87.2581 272.8763 13.20770342165100"
  },
  {
    "name": "ONEWEB-0657",
    "noradId": "55818",
    "line1": "1 55818U 23029Y   26197.79318556 -.00000018  00000+0 -78420-4 0  9997",
    "line2": "2 55818  87.9184 299.0788 0002164  79.0523 281.0853 13.19727104162818"
  },
  {
    "name": "ONEWEB-0658",
    "noradId": "55819",
    "line1": "1 55819U 23029Z   26197.78843139  .00000015  00000+0  44719-5 0  9997",
    "line2": "2 55819  87.9194 299.0579 0002372 106.7347 253.4046 13.19725927162820"
  },
  {
    "name": "ONEWEB-0660",
    "noradId": "55820",
    "line1": "1 55820U 23029AA  26197.73647390 -.00000163  00000+0 -47363-3 0  9997",
    "line2": "2 55820  87.8975 283.8132 0001976 109.1062 251.0282 13.14501889163285"
  },
  {
    "name": "ONEWEB-0661",
    "noradId": "55821",
    "line1": "1 55821U 23029AB  26197.77137088  .00000203  00000+0  51243-3 0  9995",
    "line2": "2 55821  87.8958 283.8461 0001830 107.3040 252.8290 13.14502992163270"
  },
  {
    "name": "ONEWEB-0662",
    "noradId": "55822",
    "line1": "1 55822U 23029AC  26198.18684593 -.00000187  00000+0 -53831-3 0  9998",
    "line2": "2 55822  87.8959 283.7686 0001960 107.9842 252.1502 13.14502309163372"
  },
  {
    "name": "ONEWEB-0663",
    "noradId": "55823",
    "line1": "1 55823U 23029AD  26198.15979837  .00000121  00000+0  26442-3 0  9998",
    "line2": "2 55823  87.9188 268.5290 0002216 109.5952 250.5420 13.20871419165107"
  },
  {
    "name": "ONEWEB-0664",
    "noradId": "55824",
    "line1": "1 55824U 23029AE  26198.19063299  .00000069  00000+0  13804-3 0  9998",
    "line2": "2 55824  87.9173 268.5006 0001616 103.4441 256.6873 13.20772058165104"
  },
  {
    "name": "ONEWEB-0665",
    "noradId": "55825",
    "line1": "1 55825U 23029AF  26197.76820135  .00000235  00000+0  59886-3 0  9996",
    "line2": "2 55825  87.8959 283.8275 0002054 109.1864 250.9488 13.14501703163290"
  },
  {
    "name": "ONEWEB-0666",
    "noradId": "55826",
    "line1": "1 55826U 23029AG  26198.18387749  .00000052  00000+0  95596-4 0  9999",
    "line2": "2 55826  87.9175 268.4921 0002461  82.9364 277.2049 13.20773199165119"
  },
  {
    "name": "ONEWEB-0667",
    "noradId": "55827",
    "line1": "1 55827U 23029AH  26198.17882566  .00000011  00000+0 -49944-5 0  9999",
    "line2": "2 55827  87.9191 268.4556 0001992 102.6137 257.5219 13.20773468165106"
  },
  {
    "name": "ONEWEB-0669",
    "noradId": "55828",
    "line1": "1 55828U 23029AJ  26198.17377983  .00000034  00000+0  52151-4 0  9999",
    "line2": "2 55828  87.9184 268.4658 0001626  87.2815 272.8505 13.20769946165101"
  },
  {
    "name": "ONEWEB-0670",
    "noradId": "55829",
    "line1": "1 55829U 23029AK  26198.20270580 -.00000005  00000+0 -47909-4 0  9994",
    "line2": "2 55829  87.8953 283.7575 0001682 106.8942 253.2373 13.14502039163378"
  },
  {
    "name": "ONEWEB-0671",
    "noradId": "55830",
    "line1": "1 55830U 23029AL  26197.78368384  .00000066  00000+0  13226-3 0  9997",
    "line2": "2 55830  87.9188 299.0826 0001995 105.9086 254.2266 13.19725914162809"
  },
  {
    "name": "ONEWEB-0672",
    "noradId": "55831",
    "line1": "1 55831U 23029AM  26198.16873966  .00000002  00000+0 -26728-4 0  9991",
    "line2": "2 55831  87.9182 268.4605 0002064  90.8819 269.2551 13.20769895165100"
  },
  {
    "name": "ONEWEB-0673",
    "noradId": "55832",
    "line1": "1 55832U 23029AN  26198.21568161  .00000102  00000+0  22210-3 0  9997",
    "line2": "2 55832  87.9192 298.9896 0001925 103.5152 256.6195 13.19725646162867"
  },
  {
    "name": "ONEWEB-0674",
    "noradId": "55833",
    "line1": "1 55833U 23029AP  26197.79039216 -.00000078  00000+0 -24517-3 0  9990",
    "line2": "2 55833  87.8964 283.8171 0001651 105.0204 255.1108 13.14500967163304"
  },
  {
    "name": "ONEWEB-0675",
    "noradId": "55834",
    "line1": "1 55834U 23029AQ  26198.15488012  .00000081  00000+0  17018-3 0  9994",
    "line2": "2 55834  87.9188 299.0100 0002245  95.8431 264.2957 13.19724211162872"
  },
  {
    "name": "ONEWEB-0720",
    "noradId": "55835",
    "line1": "1 55835U 23029AR  26197.84370935  .00000076  00000+0  15667-3 0  9996",
    "line2": "2 55835  87.9184 299.0713 0002193 107.3330 252.8043 13.19726484162758"
  },
  {
    "name": "ONEWEB-0537",
    "noradId": "56046",
    "line1": "1 56046U 23043A   26197.60542715  .00000139  00000+0  33085-3 0  9992",
    "line2": "2 56046  87.9078 222.9278 0002146  87.9193 272.2184 13.16594381162831"
  },
  {
    "name": "ONEWEB-0538",
    "noradId": "56047",
    "line1": "1 56047U 23043B   26198.05507333  .00000093  00000+0  21053-3 0  9991",
    "line2": "2 56047  87.9077 222.8412 0002322  93.6007 266.5390 13.16593887162907"
  }
]