OBJECT_NAME,OBJECT_ID,EPOCH,MEAN_MOTION,ECCENTRICITY,INCLINATION,RA_OF_ASC_NODE,ARG_OF_PERICENTER,MEAN_ANOMALY,EPHEMERIS_TYPE,CLASSIFICATION_TYPE,NORAD_CAT_ID,ELEMENT_SET_NO,REV_AT_EPOCH,BSTAR,MEAN_MOTION_DOT,MEAN_MOTION_DDOT
ONEWEB-0644,2023-029N,2026-07-16T19:31:44.003136,13.19726137,.0002308,87.9183,299.0786,105.5106,254.6282,0,U,55808,999,16281,-.58234E-4,-.1E-6,0
ONEWEB-0645,2023-029P,2026-07-17T05:09:27.257184,13.19726567,.000209,87.9186,298.9951,114.6993,245.4357,0,U,55809,999,16286,.17451E-3,.83E-6,0
ONEWEB-0646,2023-029Q,2026-07-16T18:39:24.178752,13.19726645,.0002297,87.9186,299.0831,104.7380,255.4007,0,U,55810,999,16279,.89642E-4,.49E-6,0
ONEWEB-0648,2023-029R,2026-07-16T19:09:34.943040,13.14503273,.0002424,87.8969,283.8041,121.1282,239.0086,0,U,55811,999,16328,-.43986E-3,-.15E-5,0
ONEWEB-0649,2023-029S,2026-07-16T19:15:47.137824,13.19726825,.000207,87.9187,299.0759,108.3698,251.7660,0,U,55812,999,16283,.65951E-4,.39E-6,0
ONEWEB-0650,2023-029T,2026-07-16T19:08:58.224768,13.19726091,.0002522,87.9184,299.0792,110.8900,249.2503,0,U,55813,999,16280,.39542E-4,.29E-6,0
ONEWEB-0652,2023-029U,2026-07-17T03:50:14.083008,13.14502774,.0001992,87.8968,283.7387,94.9032,265.2325,0,U,55814,999,16330,.57887E-3,.227E-5,0
ONEWEB-0653,2023-029V,2026-07-17T05:17:00.318048,13.14502346,.0001945,87.8968,283.7251,99.6578,260.4771,0,U,55815,999,16334,.62936E-3,.246E-5,0
ONEWEB-0654,2023-029W,2026-07-17T05:10:09.164640,13.14502059,.0001791,87.8967,283.7221,90.8630,269.2705,0,U,55816,999,16336,.35524E-3,.144E-5,0
ONEWEB-0656,2023-029X,2026-07-17T03:04:48.010944,13.20770342,.0001839,87.9187,268.4643,87.2581,272.8763,0,U,55817,999,16510,.13115E-3,.66E-6,0
ONEWEB-0657,2023-029Y,2026-07-16T19:02:11.232384,13.19727104,.0002164,87.9184,299.0788,79.0523,281.0853,0,U,55818,999,16281,-.7842E-4,-.18E-6,0
ONEWEB-0658,2023-029Z,2026-07-16T18:55:20.472096,13.19725927,.0002372,87.9194,299.0579,106.7347,253.4046,0,U,55819,999,16282,.44719E-5,.15E-6,0
ONEWEB-0660,2023-029AA,2026-07-16T17:40:31.344960,13.14501889,.0001976,87.8975,283.8132,109.1062,251.0282,0,U,55820,999,16328,-.47363E-3,-.163E-5,0
ONEWEB-0661,2023-029AB,2026-07-16T18:30:46.444032,13.14502992,.000183,87.8958,283.8461,107.3040,252.8290,0,U,55821,999,16327,.51243E-3,.203E-5,0
ONEWEB-0662,2023-029AC,2026-07-17T04:29:03.488352,13.14502309,.000196,87.8959,283.7686,107.9842,252.1502,0,U,55822,999,16337,-.53831E-3,-.187E-5,0
ONEWEB-0663,2023-029AD,2026-07-17T03:50:06.579168,13.20871419,.0002216,87.9188,268.5290,109.5952,250.5420,0,U,55823,999,16510,.26442E-3,.121E-5,0
ONEWEB-0664,2023-029AE,2026-07-17T04:34:30.690336,13.20772058,.0001616,87.9173,268.5006,103.4441,256.6873,0,U,55824,999,16510,.13804E-3,.69E-6,0
ONEWEB-0665,2023-029AF,2026-07-16T18:26:12.596640,13.14501703,.0002054,87.8959,283.8275,109.1864,250.9488,0,U,55825,999,16329,.59886E-3,.235E-5,0
ONEWEB-0666,2023-029AG,2026-07-17T04:24:47.015136,13.20773199,.0002461,87.9175,268.4921,82.9364,277.2049,0,U,55826,999,16511,.95596E-4,.52E-6,0
ONEWEB-0667,2023-029AH,2026-07-17T04:17:30.537024,13.20773468,.0001992,87.9191,268.4556,102.6137,257.5219,0,U,55827,999,16510,-.49944E-5,.11E-6,0
ONEWEB-0669,2023-029AJ,2026-07-17T04:10:14.577312,13.20769946,.0001626,87.9184,268.4658,87.2815,272.8505,0,U,55828,999,16510,.52151E-4,.34E-6,0
ONEWEB-0670,2023-029AK,2026-07-17T04:51:53.781120,13.14502039,.0001682,87.8953,283.7575,106.8942,253.2373,0,U,55829,999,16337,-.47909E-4,-.5E-7,0
ONEWEB-0671,2023-029AL,2026-07-16T18:48:30.283776,13.19725914,.0001995,87.9188,299.0826,105.9086,254.2266,0,U,55830,999,16280,.13226E-3,.66E-6,0
ONEWEB-0672,2023-029AM,2026-07-17T04:02:59.106624,13.20769895,.0002064,87.9182,268.4605,90.8819,269.2551,0,U,55831,999,16510,-.26728E-4,.2E-7,0
ONEWEB-0673,2023-029AN,2026-07-17T05:10:34.891104,13.19725646,.0001925,87.9192,298.9896,103.5152,256.6195,0,U,55832,999,16286,.2221E-3,.102E-5,0
ONEWEB-0674,2023-029AP,2026-07-16T18:58:09.882624,13.14500967,.0001651,87.8964,283.8171,105.0204,255.1108,0,U,55833,999,16330,-.24517E-3,-.78E-6,0
ONEWEB-0675,2023-029AQ,2026-07-17T03:43:01.642368,13.19724211,.0002245,87.9188,299.0100,95.8431,264.2957,0,U,55834,999,16287,.17018E-3,.81E-6,0
ONEWEB-0720,2023-029AR,2026-07-16T20:14:56.487840,13.19726484,.0002193,87.9184,299.0713,107.3330,252.8043,0,U,55835,999,16275,.15667E-3,.76E-6,0
ONEWEB-0537,2023-043A,2026-07-16T14:31:48.905760,13.16594381,.0002146,87.9078,222.9278,87.9193,272.2184,0,U,56046,999,16283,.33085E-3,.139E-5,0
ONEWEB-0538,2023-043B,2026-07-17T01:19:18.335712,13.16593887,.0002322,87.9077,222.8412,93.6007,266.5390,0,U,56047,999,16290,.21053E-3,.93E-6,0
